[{"OBJECT_NAME":"STARLINK-34715","OBJECT_ID":"2025-157AD","EPOCH":"2026-03-09T22:48:12.486528","MEAN_MOTION":15.30203571,"ECCENTRICITY":0.00015948,"INCLINATION":53.1591,"RA_OF_ASC_NODE":344.4666,"ARG_OF_PERICENTER":53.5366,"MEAN_ANOMALY":306.5781,"EPHEMERIS_TYPE":0,"CLASSIFICATION_TYPE":"U","NORAD_CAT_ID":64931,"ELEMENT_SET_NO":999,"REV_AT_EPOCH":3616,"BSTAR":0.00085337552,"MEAN_MOTION_DOT":0.00025003,"MEAN_MOTION_DDOT":0},{"OBJECT_NAME":"AZUR (GRS A)","OBJECT_ID":"1969-097A","EPOCH":"2026-03-09T21:41:10.048992","MEAN_MOTION":15.2598686,"ECCENTRICITY":0.02451425,"INCLINATION":102.6572,"RA_OF_ASC_NODE":142.7505,"ARG_OF_PERICENTER":125.1196,"MEAN_ANOMALY":237.3267,"EPHEMERIS_TYPE":0,"CLASSIFICATION_TYPE":"U","NORAD_CAT_ID":4221,"ELEMENT_SET_NO":999,"REV_AT_EPOCH":71023,"BSTAR":0.0010311441,"MEAN_MOTION_DOT":0.00065195,"MEAN_MOTION_DDOT":0}]
